IRIDIUM 156             
1 43576U 18061H   26169.72211484  .00000202  00000+0  64915-4 0  9996
2 43576  86.3959  56.0878 0002053  82.8447 277.2982 14.34215835413599
IRIDIUM 164             
1 43577U 18061J   26169.70308360  .00000252  00000+0  82762-4 0  9990
2 43577  86.3959  56.1360 0002156  89.4861 270.6582 14.34217784413637
IRIDIUM 159             
1 43578U 18061K   26169.74114022  .00000039  00000+0  67960-5 0  9992
2 43578  86.3959  56.0569 0002267  83.6454 276.5000 14.34217665413600
IRIDIUM 180             
1 43922U 19002A   26169.74063532  .00000160  00000+0  50042-4 0  9997
2 43922  86.3971 352.9479 0002258  89.3903 270.7552 14.34217630389216
IRIDIUM 176             
1 43923U 19002B   26169.51827463  .00000597  00000+0  90779-4 0  9999
2 43923  86.6091 352.9842 0002309  93.0519 267.0962 14.72268563399442
IRIDIUM 168             
1 43924U 19002C   26169.80405742  .00000167  00000+0  52469-4 0  9991
2 43924  86.3974 352.9988 0002211  89.7821 270.3629 14.34219595389200
IRIDIUM 173             
1 43925U 19002D   26169.79137676  .00000117  00000+0  34763-4 0  9990
2 43925  86.3969 352.8928 0002184  87.5316 272.6130 14.34217104389185
IRIDIUM 169             
1 43926U 19002E   26169.85202551  .00000209  00000+0  61942-4 0  9994
2 43926  86.4223  24.4972 0001798  73.7428 286.3967 14.38609637390465
IRIDIUM 172             
1 43927U 19002F   26169.78503066  .00000159  00000+0  49890-4 0  9994
2 43927  86.3970 352.9035 0002256  88.6310 271.5144 14.34219106389193
IRIDIUM 175             
1 43928U 19002G   26169.73145609  .00000266  00000+0  72534-4 0  9995
2 43928  86.4514 289.8753 0002705 174.4783 185.6448 14.43613460399207
IRIDIUM 171             
1 43929U 19002H   26169.76600590 -.00000035  00000+0 -19564-4 0  9994
2 43929  86.3975 353.2177 0001944  91.4736 268.6682 14.34217318389184
IRIDIUM 170             
1 43930U 19002J   26169.04868592  .00000610  00000+0  92773-4 0  9995
2 43930  86.6091 353.1830 0002356  89.3305 270.8182 14.72268543399380
IRIDIUM 167             
1 43931U 19002K   26169.48058880  .00000012  00000+0 -26088-5 0  9999
2 43931  86.3966 353.0532 0001779  92.7104 267.4296 14.34217549389149
IRIDIUM 181             
1 56726U 23068S   26169.70102728  .00000256  00000+0  69926-4 0  9994
2 56726  86.4500  56.1585 0002577  88.3874 271.7622 14.43310294162658
IRIDIUM 177             
1 56727U 23068T   26169.40420700  .00000506  00000+0  63133-4 0  9997
2 56727  86.1965 328.2134 0002355  88.5696 271.5795 14.80226116166543
IRIDIUM 174             
1 56728U 23068U   26169.78398970  .00000610  00000+0  92826-4 0  9999
2 56728  86.6098 353.0230 0002447  84.2537 275.8959 14.72265744166256
IRIDIUM 178             
1 56729U 23068V   26169.86654494  .00000742  00000+0  94180-4 0  9996
2 56729  86.6536  24.6583 0002619  85.4861 274.6659 14.80236167166610
IRIDIUM 179             
1 56730U 23068W   26169.86114914  .00000716  00000+0  90726-4 0  9999
2 56730  86.6773  33.6453 0002462  87.8173 272.3330 14.80233445166616
